OBJECT_NAME,OBJECT_ID,EPOCH,MEAN_MOTION,ECCENTRICITY,INCLINATION,RA_OF_ASC_NODE,ARG_OF_PERICENTER,MEAN_ANOMALY,EPHEMERIS_TYPE,CLASSIFICATION_TYPE,NORAD_CAT_ID,ELEMENT_SET_NO,REV_AT_EPOCH,BSTAR,MEAN_MOTION_DOT,MEAN_MOTION_DDOT
GPS BIIR-5  (PRN 22),2000-040A,2026-07-04T17:22:39.622080,2.00557820,.0120731,54.8496,214.4657,302.6201,43.3862,0,U,26407,999,19029,0,.73E-6,0
GPS BIIR-8  (PRN 16),2003-005A,2026-07-04T01:31:03.707040,2.00559687,.0148096,54.8802,214.2982,53.1273,311.8752,0,U,27663,999,17165,0,.7E-6,0
GPS BIIR-11 (PRN 19),2004-009A,2026-07-04T08:09:23.097888,2.00554193,.0116794,54.8153,274.9939,173.8654,183.6312,0,U,28190,999,16328,0,-.2E-6,0
GPS BIIR-13 (PRN 02),2004-045A,2026-07-04T17:57:37.905696,2.00556723,.01700172,55.1251,324.1893,316.8171,40.6346,0,U,28474,999,15877,0,-.69E-6,0
GPS BIIRM-1 (PRN 17),2005-038A,2026-07-04T20:10:06.502656,2.00564490,.01280954,54.8637,272.4647,296.3016,91.8878,0,U,28874,999,15219,0,-.17E-6,0
INMARSAT 4-F2 (SOUTHPAN/PRN 122),2005-044A,2026-07-04T12:51:27.002880,1.00270872,.00031405,5.1161,43.6573,51.2893,163.9427,0,U,28899,999,7569,0,-.25E-5,0
GPS BIIRM-2 (PRN 31),2006-042A,2026-07-03T23:04:14.104704,2.00568928,.0106946,54.7124,150.6730,54.8662,317.3308,0,U,29486,999,14473,0,.65E-6,0
GPS BIIRM-3 (PRN 12),2006-052A,2026-07-03T08:57:32.853024,2.00559084,.0084847,54.9335,213.3645,90.9431,270.0924,0,U,29601,999,14373,0,.68E-6,0
GPS BIIRM-4 (PRN 15),2007-047A,2026-07-03T16:17:16.802016,2.00554543,.0167385,54.1070,79.3860,87.7388,274.2261,0,U,32260,999,13714,0,-.21E-6,0
COSMOS 2433 (720),2007-052A,2026-07-04T17:56:17.455200,2.13104407,.00031174,65.5657,315.3427,200.1017,159.8949,0,U,32275,999,14543,0,-.43E-6,0
COSMOS 2432 (719),2007-052B,2026-07-04T02:45:12.820608,2.13103452,.0007461,65.5822,315.4920,326.1683,212.2663,0,U,32276,999,14544,0,-.44E-6,0
GPS BIIRM-5 (PRN 29),2007-062A,2026-07-05T11:33:10.069056,2.00561130,.00359684,55.0171,273.4168,166.8347,182.4853,0,U,32384,999,13587,0,-.19E-6,0
COSMOS 2434 (721),2007-065A,2026-07-05T08:34:37.511904,2.13101492,.00012677,64.3195,191.3029,327.6857,30.0012,0,U,32393,999,14415,0,.103E-5,0
COSMOS 2436 (723),2007-065C,2026-07-05T10:08:30.650208,2.13100227,.00172799,64.3280,191.3730,353.5717,186.3674,0,U,32395,999,14411,0,.104E-5,0
GPS BIIRM-6 (PRN 07),2008-012A,2026-07-05T02:01:06.665088,2.00572899,.02115624,54.4993,149.2099,248.0429,109.6727,0,U,32711,999,13411,0,.73E-6,0
GPS BIIRM-8 (PRN 05),2009-043A,2026-07-04T07:27:52.871040,2.00553427,.0053802,56.2210,26.7798,83.9260,86.3327,0,U,35752,999,12370,0,-.59E-6,0
COSMOS 2456 (730),2009-070A,2026-07-02T16:05:51.136800,2.13103720,.00038355,65.0199,70.4441,338.5659,276.2480,0,U,36111,999,12875,0,-.11E-6,0
COSMOS 2457 (733),2009-070B,2026-07-04T18:08:59.559360,2.13101378,.00036339,65.0071,70.2163,124.1851,57.8253,0,U,36112,999,12880,0,-.12E-6,0
COSMOS 2460 (732),2010-007C,2026-07-04T23:58:47.711712,2.13101962,.00018924,65.4092,313.8639,127.0261,243.3018,0,U,36402,999,12711,0,-.43E-6,0
GPS BIIF-1  (PRN 25),2010-022A,2026-07-05T11:36:45.013248,2.00563313,.01265396,54.2693,207.8250,66.1444,350.3236,0,U,36585,999,11796,0,.85E-6,0
BEIDOU-2 IGSO-1 (C06),2010-036A,2026-07-04T23:28:44.807232,1.00267280,.00591838,54.3059,162.7991,225.2498,354.5072,0,U,36828,999,5827,0,-.73E-6,0
BEIDOU-2 G4 (C04),2010-057A,2026-07-05T14:36:01.673280,1.00271144,.0004982,3.6897,68.8367,187.1173,46.6256,0,U,37210,999,5747,0,-.101E-5,0
BEIDOU-2 IGSO-2 (C07),2010-068A,2026-07-04T18:52:36.264576,1.00277550,.00566128,47.5153,271.6140,213.9633,188.6395,0,U,37256,999,5697,0,-.194E-5,0
BEIDOU-2 IGSO-3 (C08),2011-013A,2026-07-04T23:22:18.018624,1.00263911,.00352404,62.4314,39.9847,183.4155,157.1705,0,U,37384,999,5583,0,-.165E-5,0
GSAT-8 (GAGAN/PRN 127),2011-022A,2026-07-04T12:26:22.423776,1.00271356,.00021287,2.1730,81.6229,166.7757,275.8147,0,U,37605,999,5339,0,.96E-6,0
BEIDOU-2 IGSO-4 (C09),2011-038A,2026-07-04T23:27:26.858016,1.00281969,.015995,54.6038,165.5148,231.4052,331.9664,0,U,37763,999,5482,0,.36E-6,0
GSAT0101 (GALILEO-PFM),2011-060A,2026-07-03T06:32:47.607072,1.70475789,.0002657,56.9888,341.3256,57.8189,302.2010,0,U,37846,999,9139,0,-.76E-6,0
GSAT0102 (GALILEO-FM2),2011-060B,2026-07-03T18:53:16.727424,1.70476028,.0002522,56.9894,341.3121,12.9231,348.3249,0,U,37847,999,9141,0,-.75E-6,0
COSMOS 2476 (744),2011-064A,2026-07-05T11:51:41.511744,2.13104008,.00224374,65.2798,72.2536,236.8442,292.4050,0,U,37867,999,11415,0,-.13E-6,0
COSMOS 2477 (745),2011-064B,2026-07-04T19:43:57.796608,2.13103228,.00194457,65.2859,72.3558,238.0164,315.9569,0,U,37868,999,11413,0,-.1E-6,0
COSMOS 2475 (743),2011-064C,2026-07-05T08:45:55.510848,2.13102051,.00251619,65.2934,72.3591,251.8270,313.7845,0,U,37869,999,11415,0,-.12E-6,0
